NORAD_CAT_ID,OBJECT_NAME,OBJECT_TYPE,EPOCH,MEAN_MOTION,ECCENTRICITY,INCLINATION,RA_OF_ASC_NODE,ARG_OF_PERICENTER,MEAN_ANOMALY,BSTAR,MEAN_MOTION_DOT,MEAN_MOTION_DDOT,TLE_LINE0,TLE_LINE1,TLE_LINE2,SEMIMAJOR_AXIS,PERIOD,APOGEE,PERIGEE,DECAYED
51785.0,STARLINK-3646,PAYLOAD,2022-11-09 17:45:49,15.08798981,0.0002296,53.2176,37.7477,33.7795,326.3343,-0.001073,-0.00017306,0.0,0 STARLINK-3646,1 51785U 22017T   22313.74015478 -.00017306  00000-0 -10730-2 0  9997,2 51785  53.2176  37.7477 0002296  33.7795 326.3343 15.08798981 40543,6918.005999999999,95.44,541.4590000000002,538.2819999999998,0.0
51785.0,STARLINK-3646,PAYLOAD,2022-11-09 22:31:58,15.08806878,0.0002243,53.2168,36.8547,34.6631,325.4507,-0.00080389,-0.00013048,0.0,0 STARLINK-3646,1 51785U 22017T   22313.93887508 -.00013048  00000-0 -80389-3 0  9996,2 51785  53.2168  36.8547 0002243  34.6631 325.4507 15.08806878 40573,6917.982,95.44,541.398,538.295,0.0
51785.0,STARLINK-3646,PAYLOAD,2022-11-10 11:15:04,15.0881878,0.0002146,53.2165,34.4753,25.2271,334.8825,-0.00027328,-4.632e-05,0.0,0 STARLINK-3646,1 51785U 22017T   22314.46879823 -.00004632  00000-0 -27328-3 0  9999,2 51785  53.2165  34.4753 0002146  25.2271 334.8825 15.08818780 38963,6917.945,95.439,541.295,538.326,0.0
51785.0,STARLINK-3646,PAYLOAD,2022-11-10 16:01:14,15.08816628,0.000207,53.2165,33.5834,29.7294,330.3815,0.00046913,7.181e-05,0.0,0 STARLINK-3646,1 51785U 22017T   22314.66752379  .00007181  00000-0  46913-3 0  9998,2 51785  53.2165  33.5834 0002070  29.7294 330.3815 15.08816628 40684,6917.9519999999975,95.439,541.249,538.385,0.0
51785.0,STARLINK-3646,PAYLOAD,2022-11-10 17:36:37,15.08818228,0.0002082,53.2167,33.2869,29.9452,330.1659,0.0013800999999999,0.00021732,0.0,0 STARLINK-3646,1 51785U 22017T   22314.73376849  .00021732  00000-0  13801-2 0  9997,2 51785  53.2167  33.2869 0002082  29.9452 330.1659 15.08818228 39008,6917.946999999999,95.439,541.252,538.372,0.0
51785.0,STARLINK-3646,PAYLOAD,2022-11-11 12:41:16,15.08822512,0.0001976,53.2163,29.7193,31.3005,328.8104,0.0011584,0.00018187,0.0,0 STARLINK-3646,1 51785U 22017T   22315.52866205  .00018187  00000-0  11584-2 0  9991,2 51785  53.2163  29.7193 0001976  31.3005 328.8104 15.08822512 40817,6917.934,95.439,541.1659999999998,538.432,0.0
51785.0,STARLINK-3646,PAYLOAD,2022-11-11 17:27:25,15.08832185,0.0002151,53.2164,28.8267,31.7493,328.3629,0.00092171,0.00014408,0.0,0 STARLINK-3646,1 51785U 22017T   22315.72738365  .00014408  00000-0  92171-3 0  9992,2 51785  53.2164  28.8267 0002151  31.7493 328.3629 15.08832185 39150,6917.904,95.438,541.257,538.281,0.0
51785.0,STARLINK-3646,PAYLOAD,2022-11-12 12:32:03,15.08861087,0.0002172,53.2162,25.2582,34.1461,325.9671,0.0011251,0.00017674,0.0,0 STARLINK-3646,1 51785U 22017T   22316.52225895  .00017674  00000-0  11251-2 0  9997,2 51785  53.2162  25.2582 0002172  34.1461 325.9671 15.08861087 39270,6917.816,95.436,541.183,538.178,0.0
51785.0,STARLINK-3646,PAYLOAD,2022-11-12 14:07:26,15.08863857,0.0002187,53.2162,24.9609,33.9574,326.1558,0.0011179,0.0001756,0.0,0 STARLINK-3646,1 51785U 22017T   22316.58849776  .00017560  00000-0  11179-2 0  9996,2 51785  53.2162  24.9609 0002187  33.9574 326.1558 15.08863857 40977,6917.807,95.436,541.185,538.16,0.0
51785.0,STARLINK-3646,PAYLOAD,2022-11-13 10:47:25,15.08851774,0.0002298,53.2163,21.0954,35.6888,324.4258,-0.00031764,-5.342e-05,0.0,0 STARLINK-3646,1 51785U 22017T   22317.44960575 -.00005342  00000-0 -31764-3 0  9993,2 51785  53.2163  21.0954 0002298  35.6888 324.4258 15.08851774 41108,6917.844,95.437,541.299,538.12,0.0
51785.0,STARLINK-3646,PAYLOAD,2022-11-13 13:58:12,15.08842942,0.0002164,53.2165,20.5011,22.6029,337.5058,0.00033015,4.971e-05,0.0,0 STARLINK-3646,1 51785U 22017T   22317.58208662  .00004971  00000-0  33015-3 0  9996,2 51785  53.2165  20.5011 0002164  22.6029 337.5058 15.08842942 39436,6917.871,95.437,541.2330000000002,538.239,0.0
51785.0,STARLINK-3646,PAYLOAD,2022-11-14 10:38:13,15.08841585,0.0002268,53.217,16.6348,31.3055,328.8072,0.00067313,0.00010442,0.0,0 STARLINK-3646,1 51785U 22017T   22318.44321130  .00010442  00000-0  67313-3 0  9996,2 51785  53.2170  16.6348 0002268  31.3055 328.8072 15.08841585 39567,6917.876,95.437,541.31,538.172,0.0
51785.0,STARLINK-3646,PAYLOAD,2022-11-14 15:24:22,15.08835435,0.0002265,53.2166,15.7425,27.1539,332.9571,0.00030826,4.621e-05,0.0,0 STARLINK-3646,1 51785U 22017T   22318.64193270  .00004621  00000-0  30826-3 0  9991,2 51785  53.2166  15.7425 0002265  27.1539 332.9571 15.08835435 39595,6917.894,95.438,541.326,538.192,0.0
51785.0,STARLINK-3646,PAYLOAD,2022-11-15 10:29:00,15.08839071,0.0002282,53.217,12.1742,27.6126,332.4987,0.00018033,2.583e-05,0.0,0 STARLINK-3646,1 51785U 22017T   22319.43681329  .00002583  00000-0  18033-3 0  9997,2 51785  53.2170  12.1742 0002282  27.6126 332.4987 15.08839071 39719,6917.8830000000025,95.438,541.327,538.17,0.0
51785.0,STARLINK-3646,PAYLOAD,2022-11-15 15:15:10,15.08839339,0.0002302,53.2169,11.2823,28.0958,332.0158,0.00017745,2.537e-05,0.0,0 STARLINK-3646,1 51785U 22017T   22319.63553395  .00002537  00000-0  17745-3 0  9998,2 51785  53.2169  11.2823 0002302  28.0958 332.0158 15.08839339 39744,6917.882,95.438,541.34,538.155,0.0
51785.0,STARLINK-3646,PAYLOAD,2022-11-16 03:58:14,15.08847665,0.0002353,53.2167,8.9035,27.9229,332.1889,0.00013238,1.82e-05,0.0,0 STARLINK-3646,1 51785U 22017T   22320.16544949  .00001820  00000-0  13238-3 0  9990,2 51785  53.2167   8.9035 0002353  27.9229 332.1889 15.08847665 41516,6917.857,95.437,541.35,538.094,0.0
51785.0,STARLINK-3646,PAYLOAD,2022-11-16 10:19:47,15.08840886,0.0002339,53.2171,7.7139,28.6365,331.4755,0.00010855,1.44e-05,0.0,0 STARLINK-3646,1 51785U 22017T   22320.43041297  .00001440  00000-0  10855-3 0  9998,2 51785  53.2171   7.7139 0002339  28.6365 331.4755 15.08840886 41552,6917.878000000002,95.437,541.361,538.125,0.0
51785.0,STARLINK-3646,PAYLOAD,2022-11-16 19:52:06,15.08844505,0.0002366,53.2169,5.9298,30.6095,329.5034,0.00018654,2.682e-05,0.0,0 STARLINK-3646,1 51785U 22017T   22320.82785122  .00002682  00000-0  18654-3 0  9997,2 51785  53.2169   5.9298 0002366  30.6095 329.5034 15.08844505 39926,6917.8669999999975,95.437,541.368,538.095,0.0
51785.0,STARLINK-3646,PAYLOAD,2022-11-17 11:45:57,15.08844335,0.0002395,53.2172,2.9560000000000004,30.6503,329.4629,-0.00010927,-2.027e-05,0.0,0 STARLINK-3646,1 51785U 22017T   22321.49025052 -.00002027  00000-0 -10927-3 0  9990,2 51785  53.2172   2.9560 0002395  30.6503 329.4629 15.08844335 40028,6917.8669999999975,95.437,541.389,538.075,0.0
51785.0,STARLINK-3646,PAYLOAD,2022-11-17 14:56:44,15.08839661,0.0002435,53.2171,2.3612,31.6086,328.5053,9.6156e-05,1.242e-05,0.0,0 STARLINK-3646,1 51785U 22017T   22321.62273330  .00001242  00000-0  96156-4 0  9994,2 51785  53.2171   2.3612 0002435  31.6086 328.5053 15.08839661 41737,6917.880999999999,95.438,541.431,538.062,0.0
51785.0,STARLINK-3646,PAYLOAD,2022-11-18 11:36:44,15.08837978,0.0002478,53.217,358.4956,32.8005,327.3141,3.0107e-05,1.91e-06,0.0,0 STARLINK-3646,1 51785U 22017T   22322.48385392  .00000191  00000-0  30107-4 0  9997,2 51785  53.2170 358.4956 0002478  32.8005 327.3141 15.08837978 40174,6917.887,95.438,541.466,538.0369999999998,0.0
51785.0,STARLINK-3646,PAYLOAD,2022-11-19 05:05:59,15.088464300000002,0.0002443,53.2174,355.2238,32.5836,327.5307,0.00016133,2.281e-05,0.0,0 STARLINK-3646,1 51785U 22017T   22323.21248975  .00002281  00000-0  16133-3 0  9998,2 51785  53.2174 355.2238 0002443  32.5836 327.5307 15.08846430 41975,6917.861,95.437,541.4159999999998,538.036,0.0
51785.0,STARLINK-3646,PAYLOAD,2022-11-19 09:52:08,15.08840142,0.0002424,53.2175,354.3316,32.5882,327.526,0.00010204,1.336e-05,0.0,0 STARLINK-3646,1 51785U 22017T   22323.41121433  .00001336  00000-0  10204-3 0  9992,2 51785  53.2175 354.3316 0002424  32.5882 327.5260 15.08840142 40312,6917.88,95.438,541.422,538.068,0.0
51785.0,STARLINK-3646,PAYLOAD,2022-11-19 13:02:55,15.08841104,0.0002452,53.2175,353.737,32.0458,328.0683,0.00010084,1.317e-05,0.0,0 STARLINK-3646,1 51785U 22017T   22323.54369321  .00001317  00000-0  10084-3 0  9991,2 51785  53.2175 353.7370 0002452  32.0458 328.0683 15.08841104 42024,6917.877,95.437,541.438,538.0459999999998,0.0
51785.0,STARLINK-3646,PAYLOAD,2022-11-19 19:24:27,15.08846128,0.000238,53.2173,352.5474,31.6918,328.4217,0.00010089,1.318e-05,0.0,0 STARLINK-3646,1 51785U 22017T   22323.80864813  .00001318  00000-0  10089-3 0  9992,2 51785  53.2173 352.5474 0002380  31.6918 328.4217 15.08846128 40374,6917.861999999999,95.437,541.373,538.08,0.0
51785.0,STARLINK-3646,PAYLOAD,2022-11-20 11:18:18,15.08841131,0.0002388,53.2174,349.5736,32.2633,327.8505,6.645e-05,7.69e-06,0.0,0 STARLINK-3646,1 51785U 22017T   22324.47105171  .00000769  00000-0  66450-4 0  9994,2 51785  53.2174 349.5736 0002388  32.2633 327.8505 15.08841131 40474,6917.877,95.437,541.394,538.09,0.0
51785.0,STARLINK-3646,PAYLOAD,2022-11-20 19:15:14,15.08841096,0.0002428,53.2174,348.0869,32.6651,327.4491,3.5937e-05,2.84e-06,0.0,0 STARLINK-3646,1 51785U 22017T   22324.80225163  .00000284  00000-0  35937-4 0  9993,2 51785  53.2174 348.0869 0002428  32.6651 327.4491 15.08841096 40520,6917.877,95.437,541.422,538.062,0.0
51785.0,STARLINK-3646,PAYLOAD,2022-11-21 01:36:47,15.0883535,0.000245,53.2174,346.898,33.5936,326.5211,3.0608e-05,1.99e-06,0.0,0 STARLINK-3646,1 51785U 22017T   22325.06721510  .00000199  00000-0  30608-4 0  9994,2 51785  53.2174 346.8980 0002450  33.5936 326.5211 15.08835350 42259,6917.895,95.438,541.4540000000002,538.065,0.0
51785.0,STARLINK-3646,PAYLOAD,2022-11-21 11:09:06,15.08834547,0.0002717,53.2174,345.112,25.1662,334.9462,0.00012062,1.632e-05,0.0,0 STARLINK-3646,1 51785U 22017T   22325.46465488  .00001632  00000-0  12062-3 0  9993,2 51785  53.2174 345.1120 0002717  25.1662 334.9462 15.08834547 40623,6917.897,95.438,541.6419999999998,537.882,0.0
